$$SOE
2461302.500000000, A.D. 2026-Sep-19 00:00:00.0000, -4.667957703404377E+08, 2.440174237143945E+07, 7.648228598135962E+07,
2461309.500000000, A.D. 2026-Sep-26 00:00:00.0000, -4.663727738214962E+08, 1.536450141937780E+07, 7.791947823815678E+07,
2461316.500000000, A.D. 2026-Oct-03 00:00:00.0000, -4.657359432998205E+08, 6.320296553337041E+06, 7.932093111377971E+07,
2461323.500000000, A.D. 2026-Oct-10 00:00:00.0000, -4.648847549158345E+08, -2.726741021584343E+06, 8.068586300144409E+07,
2461330.500000000, A.D. 2026-Oct-17 00:00:00.0000, -4.638187270612657E+08, -1.177244680288865E+07, 8.201349406207167E+07,
2461337.500000000, A.D. 2026-Oct-24 00:00:00.0000, -4.625374214591053E+08, -2.081262149455917E+07, 8.330304614282882E+07,
2461344.500000000, A.D. 2026-Oct-31 00:00:00.0000, -4.610404442595261E+08, -2.984302966342097E+07, 8.455374268993211E+07,
2461351.500000000, A.D. 2026-Nov-07 00:00:00.0000, -4.593274468157281E+08, -3.885939847543730E+07, 8.576480863161546E+07,
2461358.500000000, A.D. 2026-Nov-14 00:00:00.0000, -4.573981259418103E+08, -4.785741562626390E+07, 8.693547028632347E+07,
2461365.500000000, A.D. 2026-Nov-21 00:00:00.0000, -4.552522254675547E+08, -5.683272578655009E+07, 8.806495551902796E+07,
2461372.500000000, A.D. 2026-Nov-28 00:00:00.0000, -4.528895400928547E+08, -6.578092857302085E+07, 8.915249399280936E+07,
2461379.500000000, A.D. 2026-Dec-05 00:00:00.0000, -4.503099179278304E+08, -7.469757870379941E+07, 9.019731713195759E+07,
2461386.500000000, A.D. 2026-Dec-12 00:00:00.0000, -4.475132615573173E+08, -8.357818522846897E+07, 9.119865803713080E+07,
2461393.500000000, A.D. 2026-Dec-19 00:00:00.0000, -4.444995295197775E+08, -9.241820982953429E+07, 9.215575152722208E+07,
2461400.500000000, A.D. 2026-Dec-26 00:00:00.0000, -4.412687383477045E+08, -1.012130650677968E+08, 9.306783425153086E+07,
2461407.500000000, A.D. 2027-Jan-02 00:00:00.0000, -4.378209648999251E+08, -1.099581127669597E+08, 9.393414483329746E+07,
2461414.500000000, A.D. 2027-Jan-09 00:00:00.0000, -4.341563488755062E+08, -1.186486625214858E+08, 9.475392403757951E+07,
2461421.500000000, A.D. 2027-Jan-16 00:00:00.0000, -4.302750954808525E+08, -1.272799703233127E+08, 9.552641496297416E+07,
2461428.500000000, A.D. 2027-Jan-23 00:00:00.0000, -4.261774782113371E+08, -1.358472373517287E+08, 9.625086325174461E+07,
2461435.500000000, A.D. 2027-Jan-30 00:00:00.0000, -4.218638415671620E+08, -1.443456089788891E+08, 9.692651729914853E+07,
2461442.500000000, A.D. 2027-Feb-06 00:00:00.0000, -4.173346032855499E+08, -1.527701736556787E+08, 9.755262845240808E+07,
2461449.500000000, A.D. 2027-Feb-13 00:00:00.0000, -4.125902565551705E+08, -1.611159604636394E+08, 9.812845134233986E+07,
2461456.500000000, A.D. 2027-Feb-20 00:00:00.0000, -4.076313745816455E+08, -1.693779361315045E+08, 9.865324450079671E+07,
2461463.500000000, A.D. 2027-Feb-27 00:00:00.0000, -4.024586161149553E+08, -1.775510047401542E+08, 9.912627087522915E+07,
2461470.500000000, A.D. 2027-Mar-06 00:00:00.0000, -3.970727289293134E+08, -1.856300082038051E+08, 9.954679812380210E+07,
2461477.500000000, A.D. 2027-Mar-13 00:00:00.0000, -3.914745528637466E+08, -1.936097254874729E+08, 9.991409900851120E+07,
2461484.500000000, A.D. 2027-Mar-20 00:00:00.0000, -3.856650235600677E+08, -2.014848714054575E+08, 1.002274519246827E+08,
2461491.500000000, A.D. 2027-Mar-27 00:00:00.0000, -3.796451767038224E+08, -2.092500955610656E+08, 1.004861415067190E+08,
2461498.500000000, A.D. 2027-Apr-03 00:00:00.0000, -3.734161525731122E+08, -2.168999814871475E+08, 1.006894592910771E+08,
2461505.500000000, A.D. 2027-Apr-10 00:00:00.0000, -3.669792008412524E+08, -2.244290459766129E+08, 1.008367044361727E+08,
2461512.500000000, A.D. 2027-Apr-17 00:00:00.0000, -3.603356856174596E+08, -2.318317386303550E+08, 1.009271844992173E+08,
2461519.500000000, A.D. 2027-Apr-24 00:00:00.0000, -3.534870906518822E+08, -2.391024416992342E+08, 1.009602162607549E+08,
2461526.500000000, A.D. 2027-May-01 00:00:00.0000, -3.464350244103404E+08, -2.462354702083465E+08, 1.009351265748565E+08,
2461533.500000000, A.D. 2027-May-08 00:00:00.0000, -3.391812247157930E+08, -2.532250716327649E+08, 1.008512532812476E+08,
2461540.500000000, A.D. 2027-May-15 00:00:00.0000, -3.317275644569481E+08, -2.600654241905907E+08, 1.007079463979975E+08,
2461547.500000000, A.D. 2027-May-22 00:00:00.0000, -3.240760599310288E+08, -2.667506363668700E+08, 1.005045695303193E+08,
2461554.500000000, A.D. 2027-May-29 00:00:00.0000, -3.162288784691336E+08, -2.732747491613498E+08, 1.002405010728487E+08,
2461561.500000000, A.D. 2027-Jun-05 00:00:00.0000, -3.081883444639879E+08, -2.796317379534488E+08, 9.991513538590780E+07,
2461568.500000000, A.D. 2027-Jun-12 00:00:00.0000, -2.999569458101838E+08, -2.858155135777507E+08, 9.952788417031455E+07,
2461575.500000000, A.D. 2027-Jun-19 00:00:00.0000, -2.915373410882870E+08, -2.918199235718833E+08, 9.907817799936509E+07,
2461582.500000000, A.D. 2027-Jun-26 00:00:00.0000, -2.829323672122965E+08, -2.976387538877428E+08, 9.856546796581106E+07,
2461589.500000000, A.D. 2027-Jul-03 00:00:00.0000, -2.741450474062495E+08, -3.032657310899242E+08, 9.798922743763897E+07,
2461596.500000000, A.D. 2027-Jul-10 00:00:00.0000, -2.651785994696623E+08, -3.086945250665495E+08, 9.734895392544624E+07,
2461603.500000000, A.D. 2027-Jul-17 00:00:00.0000, -2.560364442897826E+08, -3.139187523268601E+08, 9.664417106020965E+07,
2461610.500000000, A.D. 2027-Jul-24 00:00:00.0000, -2.467222144358739E+08, -3.189319799857883E+08, 9.587443066701965E+07,
2461617.500000000, A.D. 2027-Jul-31 00:00:00.0000, -2.372397624129284E+08, -3.237277302394776E+08, 9.503931492113866E+07,
2461624.500000000, A.D. 2027-Aug-07 00:00:00.0000, -2.275931687611718E+08, -3.282994842212492E+08, 9.413843870338941E+07,
2461631.500000000, A.D. 2027-Aug-14 00:00:00.0000, -2.177867522840374E+08, -3.326406855341854E+08, 9.317145234902839E+07,
2461638.500000000, A.D. 2027-Aug-21 00:00:00.0000, -2.078250817638320E+08, -3.367447468704749E+08, 9.213804446205169E+07,
2461645.500000000, A.D. 2027-Aug-28 00:00:00.0000, -1.977129857086398E+08, -3.406050585635944E+08, 9.103794458262637E+07,
2461652.500000000, A.D. 2027-Sep-04 00:00:00.0000, -1.874555612824109E+08, -3.442149966210191E+08, 8.987092602403754E+07,
2461659.500000000, A.D. 2027-Sep-11 00:00:00.0000, -1.770581837786492E+08, -3.475679309488332E+08, 8.863680895534199E+07,
2461666.500000000, A.D. 2027-Sep-18 00:00:00.0000, -1.665265164633552E+08, -3.506572344693355E+08, 8.733546366545540E+07,
2461673.500000000, A.D. 2027-Sep-25 00:00:00.0000, -1.558665205107085E+08, -3.534762932615058E+08, 8.596681398150292E+07,
2461680.500000000, A.D. 2027-Oct-02 00:00:00.0000, -1.450844649025167E+08, -3.560185177503735E+08, 8.453084083641115E+07,
2461687.500000000, A.D. 2027-Oct-09 00:00:00.0000, -1.341869362091439E+08, -3.582773550035213E+08, 8.302758598222651E+07,
2461694.500000000, A.D. 2027-Oct-16 00:00:00.0000, -1.231808481224091E+08, -3.602463022413633E+08, 8.145715583618763E+07,
2461701.500000000, A.D. 2027-Oct-23 00:00:00.0000, -1.120734504060453E+08, -3.619189216151246E+08, 7.981972542993182E+07,
2461708.500000000, A.D. 2027-Oct-30 00:00:00.0000, -1.008723368043803E+08, -3.632888556865237E+08, 7.811554246901625E+07,
2461715.500000000, A.D. 2027-Nov-06 00:00:00.0000, -8.958545297666062E+07, -3.643498425218546E+08, 7.634493169064422E+07,
2461722.500000000, A.D. 2027-Nov-13 00:00:00.0000, -7.822110633482826E+07, -3.650957325151196E+08, 7.450829951921266E+07,
2461729.500000000, A.D. 2027-Nov-20 00:00:00.0000, -6.678797476579990E+07, -3.655205091637895E+08, 7.260613856170303E+07,
2461736.500000000, A.D. 2027-Nov-27 00:00:00.0000, -5.529511249740805E+07, -3.656183108671826E+08, 7.063903202301158E+07,
2461743.500000000, A.D. 2027-Dec-04 00:00:00.0000, -4.375195500142821E+07, -3.653834528581588E+08, 6.860765828447361E+07,
2461750.500000000, A.D. 2027-Dec-11 00:00:00.0000, -3.216832334470667E+07, -3.648104502439521E+08, 6.651279559561625E+07,
2461757.500000000, A.D. 2027-Dec-18 00:00:00.0000, -2.055442756350558E+07, -3.638940424936607E+08, 6.435532679982114E+07,
2461764.500000000, A.D. 2027-Dec-25 00:00:00.0000, -8.920868748862179E+06, -3.626292193586233E+08, 6.213624404884163E+07,
2461771.500000000, A.D. 2028-Jan-01 00:00:00.0000, 2.721360368492842E+06, -3.610112481800534E+08, 5.985665346849385E+07,
$$EOE